ORBCOMM FM20            
1 25416U 98046D   25309.07508578  .00000974  00000+0  36889-3 0  9990
2 25416  44.9937 233.9159 0002325 316.2683  43.7980 14.37536526424530
ORBCOMM FM16            
1 25417U 98046E   25309.24644953  .00001595  00000+0  55356-3 0  9998
2 25417  44.9930 222.7690 0005567 303.3458  56.6857 14.39365939424578
ORBCOMM FM15            
1 25418U 98046F   25309.04973418  .00001303  00000+0  46394-3 0  9997
2 25418  44.9963 229.2756 0005365 302.6252  57.4079 14.38991693424532
ORBCOMM FM14            
1 25419U 98046G   25309.03069794  .00001384  00000+0  48615-3 0  9997
2 25419  44.9948 227.1821 0004093 302.3381  57.7071 14.39394931424508
ORBCOMM FM13            
1 25420U 98046H   25308.99266639  .00001178  00000+0  43183-3 0  9996
2 25420  44.9970 236.7485 0006003 281.0936  78.9237 14.38053837423503
ORBCOMM FM21            
1 25475U 98053A   25308.75510644  .00000950  00000+0  36025-3 0  9990
2 25475  45.0092 323.6712 0003331 249.2942 110.7549 14.37669426417479
ORBCOMM FM22            
1 25476U 98053B   25308.75595078  .00001345  00000+0  47937-3 0  9998
2 25476  45.0081 317.3437 0004727 239.1462 120.8921 14.38813780417513
ORBCOMM FM23            
1 25477U 98053C   25308.73638301  .00001077  00000+0  40018-3 0  9999
2 25477  45.0090 325.6679 0004047 237.9232 122.1224 14.37892066417626
